CCSDS_OMM_VERS = 2.0
CREATION_DATE  = 
ORIGINATOR     = 

OBJECT_NAME    = STARLINK-35547
OBJECT_ID      = 2025-237F
CENTER_NAME    = EARTH
REF_FRAME      = TEME
TIME_SYSTEM    = UTC
MEAN_ELEMENT_THEORY = SGP/SGP4

EPOCH          = 2025-11-07T20:00:03.000384
MEAN_MOTION    = 15.71655636
ECCENTRICITY   = .0001104
INCLINATION    = 53.1593
RA_OF_ASC_NODE = 253.0623
ARG_OF_PERICENTER = 96.4093
MEAN_ANOMALY   = 105.1726

EPHEMERIS_TYPE = 0
CLASSIFICATION_TYPE = U
NORAD_CAT_ID   = 66119
ELEMENT_SET_NO = 999
REV_AT_EPOCH   = 386
BSTAR          = -.15933E-1
MEAN_MOTION_DOT = -.1829269E-1
MEAN_MOTION_DDOT = 0

CCSDS_OMM_VERS = 2.0
CREATION_DATE  = 
ORIGINATOR     = 

OBJECT_NAME    = STARLINK-35553
OBJECT_ID      = 2025-237G
CENTER_NAME    = EARTH
REF_FRAME      = TEME
TIME_SYSTEM    = UTC
MEAN_ELEMENT_THEORY = SGP/SGP4

EPOCH          = 2025-11-07T20:00:03.000384
MEAN_MOTION    = 15.71661267
ECCENTRICITY   = .0001333
INCLINATION    = 53.1593
RA_OF_ASC_NODE = 253.0708
ARG_OF_PERICENTER = 103.7300
MEAN_ANOMALY   = 94.0158

EPHEMERIS_TYPE = 0
CLASSIFICATION_TYPE = U
NORAD_CAT_ID   = 66120
ELEMENT_SET_NO = 999
REV_AT_EPOCH   = 386
BSTAR          = -.15992E-1
MEAN_MOTION_DOT = -.1835721E-1
MEAN_MOTION_DDOT = 0

CCSDS_OMM_VERS = 2.0
CREATION_DATE  = 
ORIGINATOR     = 

OBJECT_NAME    = STARLINK-35631
OBJECT_ID      = 2025-237H
CENTER_NAME    = EARTH
REF_FRAME      = TEME
TIME_SYSTEM    = UTC
MEAN_ELEMENT_THEORY = SGP/SGP4

EPOCH          = 2025-11-07T20:00:03.000384
MEAN_MOTION    = 15.71663401
ECCENTRICITY   = .0001127
INCLINATION    = 53.1597
RA_OF_ASC_NODE = 253.0657
ARG_OF_PERICENTER = 108.6785
MEAN_ANOMALY   = 90.9830

EPHEMERIS_TYPE = 0
CLASSIFICATION_TYPE = U
NORAD_CAT_ID   = 66121
ELEMENT_SET_NO = 999
REV_AT_EPOCH   = 386
BSTAR          = -.16018E-1
MEAN_MOTION_DOT = -.1838262E-1
MEAN_MOTION_DDOT = 0

CCSDS_OMM_VERS = 2.0
CREATION_DATE  = 
ORIGINATOR     = 

OBJECT_NAME    = STARLINK-35653
OBJECT_ID      = 2025-237J
CENTER_NAME    = EARTH
REF_FRAME      = TEME
TIME_SYSTEM    = UTC
MEAN_ELEMENT_THEORY = SGP/SGP4

EPOCH          = 2025-11-07T20:00:03.000384
MEAN_MOTION    = 15.71659907
ECCENTRICITY   = .0001124
INCLINATION    = 53.1594
RA_OF_ASC_NODE = 253.0581
ARG_OF_PERICENTER = 104.0469
MEAN_ANOMALY   = 99.4503

EPHEMERIS_TYPE = 0
CLASSIFICATION_TYPE = U
NORAD_CAT_ID   = 66122
ELEMENT_SET_NO = 999
REV_AT_EPOCH   = 386
BSTAR          = -.15982E-1
MEAN_MOTION_DOT = -.1834482E-1
MEAN_MOTION_DDOT = 0

CCSDS_OMM_VERS = 2.0
CREATION_DATE  = 
ORIGINATOR     = 

OBJECT_NAME    = STARLINK-35628
OBJECT_ID      = 2025-237K
CENTER_NAME    = EARTH
REF_FRAME      = TEME
TIME_SYSTEM    = UTC
MEAN_ELEMENT_THEORY = SGP/SGP4

EPOCH          = 2025-11-07T20:00:03.000384
MEAN_MOTION    = 15.71655662
ECCENTRICITY   = .0001125
INCLINATION    = 53.1594
RA_OF_ASC_NODE = 253.0544
ARG_OF_PERICENTER = 96.0162
MEAN_ANOMALY   = 109.4011

EPHEMERIS_TYPE = 0
CLASSIFICATION_TYPE = U
NORAD_CAT_ID   = 66123
ELEMENT_SET_NO = 999
REV_AT_EPOCH   = 386
BSTAR          = -.15951E-1
MEAN_MOTION_DOT = -.1831081E-1
MEAN_MOTION_DDOT = 0

CCSDS_OMM_VERS = 2.0
CREATION_DATE  = 
ORIGINATOR     = 

OBJECT_NAME    = STARLINK-35645
OBJECT_ID      = 2025-237L
CENTER_NAME    = EARTH
REF_FRAME      = TEME
TIME_SYSTEM    = UTC
MEAN_ELEMENT_THEORY = SGP/SGP4

EPOCH          = 2025-11-07T20:00:03.000384
MEAN_MOTION    = 15.71659983
ECCENTRICITY   = .000126
INCLINATION    = 53.1594
RA_OF_ASC_NODE = 253.0504
ARG_OF_PERICENTER = 97.5864
MEAN_ANOMALY   = 109.7461

EPHEMERIS_TYPE = 0
CLASSIFICATION_TYPE = U
NORAD_CAT_ID   = 66124
ELEMENT_SET_NO = 999
REV_AT_EPOCH   = 386
BSTAR          = -.15996E-1
MEAN_MOTION_DOT = -.1835967E-1
MEAN_MOTION_DDOT = 0

CCSDS_OMM_VERS = 2.0
CREATION_DATE  = 
ORIGINATOR     = 

OBJECT_NAME    = STARLINK-35649
OBJECT_ID      = 2025-237M
CENTER_NAME    = EARTH
REF_FRAME      = TEME
TIME_SYSTEM    = UTC
MEAN_ELEMENT_THEORY = SGP/SGP4

EPOCH          = 2025-11-07T20:00:03.000384
MEAN_MOTION    = 15.71658497
ECCENTRICITY   = .0001118
INCLINATION    = 53.1593
RA_OF_ASC_NODE = 253.0467
ARG_OF_PERICENTER = 111.9270
MEAN_ANOMALY   = 97.3191

EPHEMERIS_TYPE = 0
CLASSIFICATION_TYPE = U
NORAD_CAT_ID   = 66125
ELEMENT_SET_NO = 999
REV_AT_EPOCH   = 386
BSTAR          = -.15946E-1
MEAN_MOTION_DOT = -.183077E-1
MEAN_MOTION_DDOT = 0

CCSDS_OMM_VERS = 2.0
CREATION_DATE  = 
ORIGINATOR     = 

OBJECT_NAME    = STARLINK-35658
OBJECT_ID      = 2025-237N
CENTER_NAME    = EARTH
REF_FRAME      = TEME
TIME_SYSTEM    = UTC
MEAN_ELEMENT_THEORY = SGP/SGP4

EPOCH          = 2025-11-07T20:00:03.000384
MEAN_MOTION    = 15.71664975
ECCENTRICITY   = .0001168
INCLINATION    = 53.1597
RA_OF_ASC_NODE = 253.0415
ARG_OF_PERICENTER = 111.4727
MEAN_ANOMALY   = 99.6891

EPHEMERIS_TYPE = 0
CLASSIFICATION_TYPE = U
NORAD_CAT_ID   = 66126
ELEMENT_SET_NO = 999
REV_AT_EPOCH   = 386
BSTAR          = -.16038E-1
MEAN_MOTION_DOT = -.1840401E-1
MEAN_MOTION_DDOT = 0

CCSDS_OMM_VERS = 2.0
CREATION_DATE  = 
ORIGINATOR     = 

OBJECT_NAME    = STARLINK-35629
OBJECT_ID      = 2025-237P
CENTER_NAME    = EARTH
REF_FRAME      = TEME
TIME_SYSTEM    = UTC
MEAN_ELEMENT_THEORY = SGP/SGP4

EPOCH          = 2025-11-07T20:00:03.000384
MEAN_MOTION    = 15.71656206
ECCENTRICITY   = .0001347
INCLINATION    = 53.1592
RA_OF_ASC_NODE = 253.0380
ARG_OF_PERICENTER = 112.2289
MEAN_ANOMALY   = 100.8521

EPHEMERIS_TYPE = 0
CLASSIFICATION_TYPE = U
NORAD_CAT_ID   = 66127
ELEMENT_SET_NO = 999
REV_AT_EPOCH   = 386
BSTAR          = -.15906E-1
MEAN_MOTION_DOT = -.1826844E-1
MEAN_MOTION_DDOT = 0

CCSDS_OMM_VERS = 2.0
CREATION_DATE  = 
ORIGINATOR     = 

OBJECT_NAME    = STARLINK-35612
OBJECT_ID      = 2025-237Q
CENTER_NAME    = EARTH
REF_FRAME      = TEME
TIME_SYSTEM    = UTC
MEAN_ELEMENT_THEORY = SGP/SGP4

EPOCH          = 2025-11-07T20:00:03.000384
MEAN_MOTION    = 15.71658868
ECCENTRICITY   = .0001123
INCLINATION    = 53.1596
RA_OF_ASC_NODE = 253.0338
ARG_OF_PERICENTER = 114.2127
MEAN_ANOMALY   = 100.7868

EPHEMERIS_TYPE = 0
CLASSIFICATION_TYPE = U
NORAD_CAT_ID   = 66128
ELEMENT_SET_NO = 999
REV_AT_EPOCH   = 386
BSTAR          = -.15977E-1
MEAN_MOTION_DOT = -.1833928E-1
MEAN_MOTION_DDOT = 0

CCSDS_OMM_VERS = 2.0
CREATION_DATE  = 
ORIGINATOR     = 

OBJECT_NAME    = STARLINK-35632
OBJECT_ID      = 2025-237R
CENTER_NAME    = EARTH
REF_FRAME      = TEME
TIME_SYSTEM    = UTC
MEAN_ELEMENT_THEORY = SGP/SGP4

EPOCH          = 2025-11-07T20:00:03.000384
MEAN_MOTION    = 15.71657728
ECCENTRICITY   = .0001316
INCLINATION    = 53.1593
RA_OF_ASC_NODE = 253.0295
ARG_OF_PERICENTER = 117.6246
MEAN_ANOMALY   = 99.2897

EPHEMERIS_TYPE = 0
CLASSIFICATION_TYPE = U
NORAD_CAT_ID   = 66129
ELEMENT_SET_NO = 999
REV_AT_EPOCH   = 386
BSTAR          = -.15945E-1
MEAN_MOTION_DOT = -.1830733E-1
MEAN_MOTION_DDOT = 0

CCSDS_OMM_VERS = 2.0
CREATION_DATE  = 
ORIGINATOR     = 

OBJECT_NAME    = STARLINK-35637
OBJECT_ID      = 2025-237S
CENTER_NAME    = EARTH
REF_FRAME      = TEME
TIME_SYSTEM    = UTC
MEAN_ELEMENT_THEORY = SGP/SGP4

EPOCH          = 2025-11-07T20:00:03.000384
MEAN_MOTION    = 15.71660964
ECCENTRICITY   = .0000973
INCLINATION    = 53.1594
RA_OF_ASC_NODE = 253.0254
ARG_OF_PERICENTER = 101.7140
MEAN_ANOMALY   = 117.1175

EPHEMERIS_TYPE = 0
CLASSIFICATION_TYPE = U
NORAD_CAT_ID   = 66130
ELEMENT_SET_NO = 999
REV_AT_EPOCH   = 386
BSTAR          = -.15991E-1
MEAN_MOTION_DOT = -.1835319E-1
MEAN_MOTION_DDOT = 0

