STARLINK-35547          
1 66119U 25237F   25311.83336806 -.01829269  00000+0 -15933-1 0  9991
2 66119  53.1593 253.0623 0001104  96.4093 105.1726 15.71655636  3863
STARLINK-35553          
1 66120U 25237G   25311.83336806 -.01835721  00000+0 -15992-1 0  9998
2 66120  53.1593 253.0708 0001333 103.7300  94.0158 15.71661267  3868
STARLINK-35631          
1 66121U 25237H   25311.83336806 -.01838262  00000+0 -16018-1 0  9992
2 66121  53.1597 253.0657 0001127 108.6785  90.9830 15.71663401  3862
STARLINK-35653          
1 66122U 25237J   25311.83336806 -.01834482  00000+0 -15982-1 0  9992
2 66122  53.1594 253.0581 0001124 104.0469  99.4503 15.71659907  3869
STARLINK-35628          
1 66123U 25237K   25311.83336806 -.01831081  00000+0 -15951-1 0  9991
2 66123  53.1594 253.0544 0001125  96.0162 109.4011 15.71655662  3860
STARLINK-35645          
1 66124U 25237L   25311.83336806 -.01835967  00000+0 -15996-1 0  9998
2 66124  53.1594 253.0504 0001260  97.5864 109.7461 15.71659983  3864
STARLINK-35649          
1 66125U 25237M   25311.83336806 -.01830770  00000+0 -15946-1 0  9991
2 66125  53.1593 253.0467 0001118 111.9270  97.3191 15.71658497  3867
STARLINK-35658          
1 66126U 25237N   25311.83336806 -.01840401  00000+0 -16038-1 0  9997
2 66126  53.1597 253.0415 0001168 111.4727  99.6891 15.71664975  3862
STARLINK-35629          
1 66127U 25237P   25311.83336806 -.01826844  00000+0 -15906-1 0  9996
2 66127  53.1592 253.0380 0001347 112.2289 100.8521 15.71656206  3863
STARLINK-35612          
1 66128U 25237Q   25311.83336806 -.01833928  00000+0 -15977-1 0  9996
2 66128  53.1596 253.0338 0001123 114.2127 100.7868 15.71658868  3865
STARLINK-35632          
1 66129U 25237R   25311.83336806 -.01830733  00000+0 -15945-1 0  9993
2 66129  53.1593 253.0295 0001316 117.6246  99.2897 15.71657728  3866
STARLINK-35637          
1 66130U 25237S   25311.83336806 -.01835319  00000+0 -15991-1 0  9991
2 66130  53.1594 253.0254 0000973 101.7140 117.1175 15.71660964  3864
